[{"OBJECT_NAME":"ONEWEB-0504","OBJECT_ID":"2022-138K","EPOCH":"2025-10-27T05:15:28.617408","MEAN_MOTION":13.19725201,"ECCENTRICITY":0.00017337,"INCLINATION":87.9248,"RA_OF_ASC_NODE":351.3116,"ARG_OF_PERICENTER":106.4012,"MEAN_ANOMALY":253.7311,"EPHEMERIS_TYPE":0,"CLASSIFICATION_TYPE":"U","NORAD_CAT_ID":54122,"ELEMENT_SET_NO":999,"REV_AT_EPOCH":14610,"BSTAR":-2.8008205e-5,"MEAN_MOTION_DOT":2.0e-8,"MEAN_MOTION_DDOT":0},{"OBJECT_NAME":"ONEWEB-0505","OBJECT_ID":"2022-138L","EPOCH":"2025-10-27T03:21:45.086688","MEAN_MOTION":13.19725546,"ECCENTRICITY":0.00019137,"INCLINATION":87.9252,"RA_OF_ASC_NODE":351.3154,"ARG_OF_PERICENTER":114.7843,"MEAN_ANOMALY":245.3489,"EPHEMERIS_TYPE":0,"CLASSIFICATION_TYPE":"U","NORAD_CAT_ID":54123,"ELEMENT_SET_NO":999,"REV_AT_EPOCH":14607,"BSTAR":9.8362316e-5,"MEAN_MOTION_DOT":5.2e-7,"MEAN_MOTION_DDOT":0},{"OBJECT_NAME":"ONEWEB-0506","OBJECT_ID":"2022-138M","EPOCH":"2025-10-27T04:34:32.129760","MEAN_MOTION":13.19725484,"ECCENTRICITY":0.0001858,"INCLINATION":87.9253,"RA_OF_ASC_NODE":351.3023,"ARG_OF_PERICENTER":103.7129,"MEAN_ANOMALY":256.421,"EPHEMERIS_TYPE":0,"CLASSIFICATION_TYPE":"U","NORAD_CAT_ID":54124,"ELEMENT_SET_NO":999,"REV_AT_EPOCH":14607,"BSTAR":0.00013763985,"MEAN_MOTION_DOT":6.8e-7,"MEAN_MOTION_DDOT":0},{"OBJECT_NAME":"ONEWEB-0507","OBJECT_ID":"2022-138N","EPOCH":"2025-10-27T05:04:05.971008","MEAN_MOTION":13.19725376,"ECCENTRICITY":0.0001954,"INCLINATION":87.9235,"RA_OF_ASC_NODE":351.3417,"ARG_OF_PERICENTER":104.2431,"MEAN_ANOMALY":255.8919,"EPHEMERIS_TYPE":0,"CLASSIFICATION_TYPE":"U","NORAD_CAT_ID":54125,"ELEMENT_SET_NO":999,"REV_AT_EPOCH":14612,"BSTAR":-7.6692992e-5,"MEAN_MOTION_DOT":-1.8e-7,"MEAN_MOTION_DDOT":0},{"OBJECT_NAME":"ONEWEB-0508","OBJECT_ID":"2022-138P","EPOCH":"2025-10-27T04:59:33.107712","MEAN_MOTION":13.19725717,"ECCENTRICITY":0.00020243,"INCLINATION":87.9245,"RA_OF_ASC_NODE":351.3313,"ARG_OF_PERICENTER":108.433,"MEAN_ANOMALY":251.7023,"EPHEMERIS_TYPE":0,"CLASSIFICATION_TYPE":"U","NORAD_CAT_ID":54126,"ELEMENT_SET_NO":999,"REV_AT_EPOCH":14610,"BSTAR":2.6307327e-5,"MEAN_MOTION_DOT":2.3e-7,"MEAN_MOTION_DDOT":0},{"OBJECT_NAME":"ONEWEB-0509","OBJECT_ID":"2022-138Q","EPOCH":"2025-10-27T04:23:09.454848","MEAN_MOTION":13.19724777,"ECCENTRICITY":0.00019201,"INCLINATION":87.9255,"RA_OF_ASC_NODE":351.3025,"ARG_OF_PERICENTER":102.2109,"MEAN_ANOMALY":257.9239,"EPHEMERIS_TYPE":0,"CLASSIFICATION_TYPE":"U","NORAD_CAT_ID":54127,"ELEMENT_SET_NO":999,"REV_AT_EPOCH":14607,"BSTAR":8.2633519e-5,"MEAN_MOTION_DOT":4.6e-7,"MEAN_MOTION_DDOT":0},{"OBJECT_NAME":"ONEWEB-0510","OBJECT_ID":"2022-138R","EPOCH":"2025-10-27T00:40:06.482784","MEAN_MOTION":13.20770844,"ECCENTRICITY":0.00019073,"INCLINATION":87.9194,"RA_OF_ASC_NODE":320.9386,"ARG_OF_PERICENTER":77.222,"MEAN_ANOMALY":282.9127,"EPHEMERIS_TYPE":0,"CLASSIFICATION_TYPE":"U","NORAD_CAT_ID":54128,"ELEMENT_SET_NO":999,"REV_AT_EPOCH":14850,"BSTAR":1.249543e-5,"MEAN_MOTION_DOT":1.8e-7,"MEAN_MOTION_DDOT":0},{"OBJECT_NAME":"ONEWEB-0511","OBJECT_ID":"2022-138S","EPOCH":"2025-10-27T04:18:36.893088","MEAN_MOTION":13.19725266,"ECCENTRICITY":0.00015713,"INCLINATION":87.9255,"RA_OF_ASC_NODE":351.3072,"ARG_OF_PERICENTER":99.1938,"MEAN_ANOMALY":260.9373,"EPHEMERIS_TYPE":0,"CLASSIFICATION_TYPE":"U","NORAD_CAT_ID":54129,"ELEMENT_SET_NO":999,"REV_AT_EPOCH":14610,"BSTAR":0.00015353211,"MEAN_MOTION_DOT":7.4e-7,"MEAN_MOTION_DDOT":0},{"OBJECT_NAME":"ONEWEB-0512","OBJECT_ID":"2022-138T","EPOCH":"2025-10-27T04:07:14.237184","MEAN_MOTION":13.19725513,"ECCENTRICITY":0.00018088,"INCLINATION":87.9236,"RA_OF_ASC_NODE":351.3409,"ARG_OF_PERICENTER":110.6392,"MEAN_ANOMALY":249.4934,"EPHEMERIS_TYPE":0,"CLASSIFICATION_TYPE":"U","NORAD_CAT_ID":54130,"ELEMENT_SET_NO":999,"REV_AT_EPOCH":14607,"BSTAR":5.2341391e-5,"MEAN_MOTION_DOT":3.4e-7,"MEAN_MOTION_DDOT":0},{"OBJECT_NAME":"ONEWEB-0513","OBJECT_ID":"2022-138U","EPOCH":"2025-10-27T04:45:14.897376","MEAN_MOTION":13.20318481,"ECCENTRICITY":0.00014996,"INCLINATION":87.926,"RA_OF_ASC_NODE":351.2965,"ARG_OF_PERICENTER":115.4039,"MEAN_ANOMALY":244.7249,"EPHEMERIS_TYPE":0,"CLASSIFICATION_TYPE":"U","NORAD_CAT_ID":54131,"ELEMENT_SET_NO":999,"REV_AT_EPOCH":14597,"BSTAR":-5.8032598e-5,"MEAN_MOTION_DOT":-1.0e-7,"MEAN_MOTION_DDOT":0},{"OBJECT_NAME":"ONEWEB-0514","OBJECT_ID":"2022-138V","EPOCH":"2025-10-27T04:29:58.998624","MEAN_MOTION":13.19725136,"ECCENTRICITY":0.00018318,"INCLINATION":87.9246,"RA_OF_ASC_NODE":351.3182,"ARG_OF_PERICENTER":94.4699,"MEAN_ANOMALY":265.6643,"EPHEMERIS_TYPE":0,"CLASSIFICATION_TYPE":"U","NORAD_CAT_ID":54132,"ELEMENT_SET_NO":999,"REV_AT_EPOCH":14609,"BSTAR":0.00012022277,"MEAN_MOTION_DOT":6.1e-7,"MEAN_MOTION_DDOT":0},{"OBJECT_NAME":"ONEWEB-0515","OBJECT_ID":"2022-138W","EPOCH":"2025-10-27T07:38:17.027232","MEAN_MOTION":13.20771448,"ECCENTRICITY":0.00025861,"INCLINATION":87.9203,"RA_OF_ASC_NODE":320.8633,"ARG_OF_PERICENTER":79.2991,"MEAN_ANOMALY":280.8434,"EPHEMERIS_TYPE":0,"CLASSIFICATION_TYPE":"U","NORAD_CAT_ID":54133,"ELEMENT_SET_NO":999,"REV_AT_EPOCH":14856,"BSTAR":7.8412423e-5,"MEAN_MOTION_DOT":4.5e-7,"MEAN_MOTION_DDOT":0},{"OBJECT_NAME":"ONEWEB-0516","OBJECT_ID":"2022-138X","EPOCH":"2025-10-27T03:53:35.430432","MEAN_MOTION":13.19725488,"ECCENTRICITY":0.00019531,"INCLINATION":87.9232,"RA_OF_ASC_NODE":351.3479,"ARG_OF_PERICENTER":101.1968,"MEAN_ANOMALY":258.9384,"EPHEMERIS_TYPE":0,"CLASSIFICATION_TYPE":"U","NORAD_CAT_ID":54134,"ELEMENT_SET_NO":999,"REV_AT_EPOCH":14609,"BSTAR":-3.092111e-6,"MEAN_MOTION_DOT":1.2e-7,"MEAN_MOTION_DDOT":0},{"OBJECT_NAME":"ONEWEB-0517","OBJECT_ID":"2022-138Y","EPOCH":"2025-10-27T03:24:00.979200","MEAN_MOTION":13.19724746,"ECCENTRICITY":0.00015671,"INCLINATION":87.9252,"RA_OF_ASC_NODE":351.3238,"ARG_OF_PERICENTER":96.0843,"MEAN_ANOMALY":264.0468,"EPHEMERIS_TYPE":0,"CLASSIFICATION_TYPE":"U","NORAD_CAT_ID":54135,"ELEMENT_SET_NO":999,"REV_AT_EPOCH":14609,"BSTAR":8.3930865e-5,"MEAN_MOTION_DOT":4.7e-7,"MEAN_MOTION_DDOT":0},{"OBJECT_NAME":"ONEWEB-0518","OBJECT_ID":"2022-138Z","EPOCH":"2025-10-27T07:29:40.127136","MEAN_MOTION":13.19725039,"ECCENTRICITY":0.00019003,"INCLINATION":87.9237,"RA_OF_ASC_NODE":351.3198,"ARG_OF_PERICENTER":103.6779,"MEAN_ANOMALY":256.4565,"EPHEMERIS_TYPE":0,"CLASSIFICATION_TYPE":"U","NORAD_CAT_ID":54136,"ELEMENT_SET_NO":999,"REV_AT_EPOCH":14611,"BSTAR":0.00012020036,"MEAN_MOTION_DOT":6.1e-7,"MEAN_MOTION_DDOT":0},{"OBJECT_NAME":"ONEWEB-0519","OBJECT_ID":"2022-138AA","EPOCH":"2025-10-27T04:27:42.364800","MEAN_MOTION":13.19724913,"ECCENTRICITY":0.0001672,"INCLINATION":87.9254,"RA_OF_ASC_NODE":351.3064,"ARG_OF_PERICENTER":98.1724,"MEAN_ANOMALY":261.9598,"EPHEMERIS_TYPE":0,"CLASSIFICATION_TYPE":"U","NORAD_CAT_ID":54137,"ELEMENT_SET_NO":999,"REV_AT_EPOCH":14610,"BSTAR":0.00023774541,"MEAN_MOTION_DOT":1.08e-6,"MEAN_MOTION_DDOT":0},{"OBJECT_NAME":"ONEWEB-0520","OBJECT_ID":"2022-138AB","EPOCH":"2025-10-27T03:28:34.145760","MEAN_MOTION":13.19725605,"ECCENTRICITY":0.00019999,"INCLINATION":87.9253,"RA_OF_ASC_NODE":351.3188,"ARG_OF_PERICENTER":107.2906,"MEAN_ANOMALY":252.8446,"EPHEMERIS_TYPE":0,"CLASSIFICATION_TYPE":"U","NORAD_CAT_ID":54138,"ELEMENT_SET_NO":999,"REV_AT_EPOCH":14608,"BSTAR":2.0257204e-5,"MEAN_MOTION_DOT":2.1e-7,"MEAN_MOTION_DDOT":0}]
