ONEWEB-0504             
1 54122U 22138K   25300.21908122  .00000002  00000+0 -28008-4 0  9999
2 54122  87.9248 351.3116 0001733 106.4012 253.7311 13.19725201146107
ONEWEB-0505             
1 54123U 22138L   25300.14010517  .00000052  00000+0  98362-4 0  9998
2 54123  87.9252 351.3154 0001913 114.7843 245.3489 13.19725546146070
ONEWEB-0506             
1 54124U 22138M   25300.19064965  .00000068  00000+0  13764-3 0  9999
2 54124  87.9253 351.3023 0001858 103.7129 256.4210 13.19725484146076
ONEWEB-0507             
1 54125U 22138N   25300.21118022 -.00000018  00000+0 -76693-4 0  9995
2 54125  87.9235 351.3417 0001954 104.2431 255.8919 13.19725376146128
ONEWEB-0508             
1 54126U 22138P   25300.20802208  .00000023  00000+0  26307-4 0  9992
2 54126  87.9245 351.3313 0002024 108.4330 251.7023 13.19725717146106
ONEWEB-0509             
1 54127U 22138Q   25300.18274832  .00000046  00000+0  82634-4 0  9996
2 54127  87.9255 351.3025 0001920 102.2109 257.9239 13.19724777146076
ONEWEB-0510             
1 54128U 22138R   25300.02785281  .00000018  00000+0  12495-4 0  9992
2 54128  87.9194 320.9386 0001907  77.2220 282.9127 13.20770844148503
ONEWEB-0511             
1 54129U 22138S   25300.17959367  .00000074  00000+0  15353-3 0  9994
2 54129  87.9255 351.3072 0001571  99.1938 260.9373 13.19725266146107
ONEWEB-0512             
1 54130U 22138T   25300.17169256  .00000034  00000+0  52341-4 0  9991
2 54130  87.9236 351.3409 0001808 110.6392 249.4934 13.19725513146074
ONEWEB-0513             
1 54131U 22138U   25300.19808909 -.00000010  00000+0 -58033-4 0  9999
2 54131  87.9260 351.2965 0001499 115.4039 244.7249 13.20318481145974
ONEWEB-0514             
1 54132U 22138V   25300.18748841  .00000061  00000+0  12022-3 0  9998
2 54132  87.9246 351.3182 0001831  94.4699 265.6643 13.19725136146090
ONEWEB-0515             
1 54133U 22138W   25300.31825263  .00000045  00000+0  78412-4 0  9996
2 54133  87.9203 320.8633 0002586  79.2991 280.8434 13.20771448148560
ONEWEB-0516             
1 54134U 22138X   25300.16221563  .00000012  00000+0 -30921-5 0  9992
2 54134  87.9232 351.3479 0001953 101.1968 258.9384 13.19725488146093
ONEWEB-0517             
1 54135U 22138Y   25300.14167800  .00000047  00000+0  83931-4 0  9999
2 54135  87.9252 351.3238 0001567  96.0843 264.0468 13.19724746146091
ONEWEB-0518             
1 54136U 22138Z   25300.31226999  .00000061  00000+0  12020-3 0  9990
2 54136  87.9237 351.3198 0001900 103.6779 256.4565 13.19725039146116
ONEWEB-0519             
1 54137U 22138AA  25300.18590700  .00000108  00000+0  23775-3 0  9991
2 54137  87.9254 351.3064 0001672  98.1724 261.9598 13.19724913146108
ONEWEB-0520             
1 54138U 22138AB  25300.14483965  .00000021  00000+0  20257-4 0  9999
2 54138  87.9253 351.3188 0001999 107.2906 252.8446 13.19725605146088
